[{"OBJECT_NAME":"TELEOS-2","OBJECT_ID":"2023-057C","EPOCH":"2026-03-08T15:30:11.035584","MEAN_MOTION":14.96380118,"ECCENTRICITY":8.033e-5,"INCLINATION":9.9874,"RA_OF_ASC_NODE":216.2411,"ARG_OF_PERICENTER":295.2771,"MEAN_ANOMALY":64.7359,"EPHEMERIS_TYPE":0,"CLASSIFICATION_TYPE":"U","NORAD_CAT_ID":56310,"ELEMENT_SET_NO":999,"REV_AT_EPOCH":15771,"BSTAR":1.5043378e-5,"MEAN_MOTION_DOT":8.63e-6,"MEAN_MOTION_DDOT":0},{"OBJECT_NAME":"STARLINK-35997","OBJECT_ID":"2025-280Y","EPOCH":"2026-03-09T22:21:26.676864","MEAN_MOTION":14.98330654,"ECCENTRICITY":0.00019646,"INCLINATION":70.0036,"RA_OF_ASC_NODE":333.7811,"ARG_OF_PERICENTER":266.2728,"MEAN_ANOMALY":93.8207,"EPHEMERIS_TYPE":0,"CLASSIFICATION_TYPE":"U","NORAD_CAT_ID":66843,"ELEMENT_SET_NO":999,"REV_AT_EPOCH":1611,"BSTAR":0.00074923265,"MEAN_MOTION_DOT":8.858e-5,"MEAN_MOTION_DDOT":0}]
